{
  "type": "FeatureCollection",
  "features": [
    {
      "type": "Feature",
      "properties": {
        "norad_id": 33791,
        "name": "COSMOS 2251 DEB",
        "group": "cosmos-2251-debris",
        "lat": -32.738332905363926,
        "lon": -122.78733715817081,
        "alt_km": 735.3061310173789,
        "timestamp": "2025-12-07T18:50:17.107347+00:00",
        "meta_object_name": "COSMOS 2251 DEB",
        "meta_object_id": "1993-036AG",
        "meta_epoch": "2025-12-07T04:41:30.817248",
        "meta_mean_motion": 14.43080889,
        "meta_eccentricity": 0.00305904,
        "meta_inclination": 74.1756,
        "meta_ra_of_asc_node": 47.791,
        "meta_arg_of_pericenter": 245.9307,
        "meta_mean_anomaly": 147.4821,
        "meta_ephemeris_type": 0,
        "meta_classification_type": "U",
        "meta_norad_cat_id": 33791,
        "meta_element_set_no": 999,
        "meta_rev_at_epoch": 87972,
        "meta_bstar": 0.0011554096,
        "meta_mean_motion_dot": 3.873e-05,
        "meta_mean_motion_ddot": 0,
        "tle_line1": "1 33791U 93036AG  25341.19549557  .00003873  00000+0  11554-2 0  9992",
        "tle_line2": "2 33791  74.1756  47.7910 0030590 245.9307 147.4821 14.43080889879725"
      },
      "geometry": {
        "type": "Point",
        "coordinates": [
          -122.78733715817081,
          -32.738332905363926
        ]
      }
    },
    {
      "type": "Feature",
      "properties": {
        "norad_id": 33792,
        "name": "COSMOS 2251 DEB",
        "group": "cosmos-2251-debris",
        "lat": -19.07872150073468,
        "lon": 178.9895451635035,
        "alt_km": 1334.2872663899034,
        "timestamp": "2025-12-07T18:50:17.107357+00:00",
        "meta_object_name": "COSMOS 2251 DEB",
        "meta_object_id": "1993-036AH",
        "meta_epoch": "2025-12-07T07:15:26.585856",
        "meta_mean_motion": 13.45811049,
        "meta_eccentricity": 0.04268749,
        "meta_inclination": 73.9009,
        "meta_ra_of_asc_node": 354.0274,
        "meta_arg_of_pericenter": 59.6931,
        "meta_mean_anomaly": 319.9722,
        "meta_ephemeris_type": 0,
        "meta_classification_type": "U",
        "meta_norad_cat_id": 33792,
        "meta_element_set_no": 999,
        "meta_rev_at_epoch": 82369,
        "meta_bstar": 0.0011058596,
        "meta_mean_motion_dot": 1.125e-05,
        "meta_mean_motion_ddot": 0,
        "tle_line1": "1 33792U 93036AH  25341.30239104  .00001125  00000+0  11059-2 0  9998",
        "tle_line2": "2 33792  73.9009 354.0274 0426874  59.6931 319.9722 13.45811049823690"
      },
      "geometry": {
        "type": "Point",
        "coordinates": [
          178.9895451635035,
          -19.07872150073468
        ]
      }
    },
    {
      "type": "Feature",
      "properties": {
        "norad_id": 33793,
        "name": "COSMOS 2251 DEB",
        "group": "cosmos-2251-debris",
        "lat": 12.563553119163698,
        "lon": 162.59378076827696,
        "alt_km": 774.5602103811698,
        "timestamp": "2025-12-07T18:50:17.107367+00:00",
        "meta_object_name": "COSMOS 2251 DEB",
        "meta_object_id": "1993-036AJ",
        "meta_epoch": "2025-12-07T06:10:16.535712",
        "meta_mean_motion": 14.27695126,
        "meta_eccentricity": 0.00783081,
        "meta_inclination": 73.9802,
        "meta_ra_of_asc_node": 159.8816,
        "meta_arg_of_pericenter": 311.0752,
        "meta_mean_anomaly": 229.7368,
        "meta_ephemeris_type": 0,
        "meta_classification_type": "U",
        "meta_norad_cat_id": 33793,
        "meta_element_set_no": 999,
        "meta_rev_at_epoch": 87128,
        "meta_bstar": 0.0010661569,
        "meta_mean_motion_dot": 2.691e-05,
        "meta_mean_motion_ddot": 0,
        "tle_line1": "1 33793U 93036AJ  25341.25713583  .00002691  00000+0  10662-2 0  9999",
        "tle_line2": "2 33793  73.9802 159.8816 0078308 311.0752 229.7368 14.27695126871285"
      },
      "geometry": {
        "type": "Point",
        "coordinates": [
          162.59378076827696,
          12.563553119163698
        ]
      }
    },
    {
      "type": "Feature",
      "properties": {
        "norad_id": 33795,
        "name": "COSMOS 2251 DEB",
        "group": "cosmos-2251-debris",
        "lat": 13.91772889807659,
        "lon": 90.96355804239121,
        "alt_km": 572.2733211288933,
        "timestamp": "2025-12-07T18:50:17.107377+00:00",
        "meta_object_name": "COSMOS 2251 DEB",
        "meta_object_id": "1993-036AL",
        "meta_epoch": "2025-12-07T06:07:09.757056",
        "meta_mean_motion": 15.05195494,
        "meta_eccentricity": 0.0032401,
        "meta_inclination": 74.0332,
        "meta_ra_of_asc_node": 87.9805,
        "meta_arg_of_pericenter": 173.5467,
        "meta_mean_anomaly": 210.7707,
        "meta_ephemeris_type": 0,
        "meta_classification_type": "U",
        "meta_norad_cat_id": 33795,
        "meta_element_set_no": 999,
        "meta_rev_at_epoch": 89939,
        "meta_bstar": 0.0022370714,
        "meta_mean_motion_dot": 0.000324,
        "meta_mean_motion_ddot": 0,
        "tle_line1": "1 33795U 93036AL  25341.25497404  .00032400  00000+0  22371-2 0  9993",
        "tle_line2": "2 33795  74.0332  87.9805 0032401 173.5467 210.7707 15.05195494899393"
      },
      "geometry": {
        "type": "Point",
        "coordinates": [
          90.96355804239121,
          13.91772889807659
        ]
      }
    },
    {
      "type": "Feature",
      "properties": {
        "norad_id": 33797,
        "name": "COSMOS 2251 DEB",
        "group": "cosmos-2251-debris",
        "lat": -37.00298101749517,
        "lon": 31.928156802007088,
        "alt_km": 749.0376585851654,
        "timestamp": "2025-12-07T18:50:17.107387+00:00",
        "meta_object_name": "COSMOS 2251 DEB",
        "meta_object_id": "1993-036AN",
        "meta_epoch": "2025-12-07T04:20:11.444064",
        "meta_mean_motion": 14.57814824,
        "meta_eccentricity": 0.00609922,
        "meta_inclination": 74.0482,
        "meta_ra_of_asc_node": 45.5241,
        "meta_arg_of_pericenter": 135.0662,
        "meta_mean_anomaly": 256.5741,
        "meta_ephemeris_type": 0,
        "meta_classification_type": "U",
        "meta_norad_cat_id": 33797,
        "meta_element_set_no": 999,
        "meta_rev_at_epoch": 88904,
        "meta_bstar": 0.00077989031,
        "meta_mean_motion_dot": 3.633e-05,
        "meta_mean_motion_ddot": 0,
        "tle_line1": "1 33797U 93036AN  25341.18068801  .00003633  00000+0  77989-3 0  9994",
        "tle_line2": "2 33797  74.0482  45.5241 0060992 135.0662 256.5741 14.57814824889049"
      },
      "geometry": {
        "type": "Point",
        "coordinates": [
          31.928156802007088,
          -37.00298101749517
        ]
      }
    },
    {
      "type": "Feature",
      "properties": {
        "norad_id": 33798,
        "name": "COSMOS 2251 DEB",
        "group": "cosmos-2251-debris",
        "lat": 69.24003260175864,
        "lon": -165.790609569294,
        "alt_km": 800.9183899086793,
        "timestamp": "2025-12-07T18:50:17.107397+00:00",
        "meta_object_name": "COSMOS 2251 DEB",
        "meta_object_id": "1993-036AP",
        "meta_epoch": "2025-12-07T06:00:48.619872",
        "meta_mean_motion": 14.44604068,
        "meta_eccentricity": 0.00925176,
        "meta_inclination": 74.0277,
        "meta_ra_of_asc_node": 146.1295,
        "meta_arg_of_pericenter": 268.694,
        "meta_mean_anomaly": 269.8597,
        "meta_ephemeris_type": 0,
        "meta_classification_type": "U",
        "meta_norad_cat_id": 33798,
        "meta_element_set_no": 999,
        "meta_rev_at_epoch": 88514,
        "meta_bstar": 0.00029028918,
        "meta_mean_motion_dot": 1.029e-05,
        "meta_mean_motion_ddot": 0,
        "tle_line1": "1 33798U 93036AP  25341.25056273  .00001029  00000+0  29029-3 0  9992",
        "tle_line2": "2 33798  74.0277 146.1295 0092517 268.6940 269.8597 14.44604068885145"
      },
      "geometry": {
        "type": "Point",
        "coordinates": [
          -165.790609569294,
          69.24003260175864
        ]
      }
    },
    {
      "type": "Feature",
      "properties": {
        "norad_id": 33799,
        "name": "COSMOS 2251 DEB",
        "group": "cosmos-2251-debris",
        "lat": 54.25281960385327,
        "lon": 114.98219439445205,
        "alt_km": 630.2563597505668,
        "timestamp": "2025-12-07T18:50:17.107407+00:00",
        "meta_object_name": "COSMOS 2251 DEB",
        "meta_object_id": "1993-036AQ",
        "meta_epoch": "2025-12-07T07:21:20.779200",
        "meta_mean_motion": 14.79446612,
        "meta_eccentricity": 0.00239679,
        "meta_inclination": 74.0324,
        "meta_ra_of_asc_node": 92.4845,
        "meta_arg_of_pericenter": 165.0857,
        "meta_mean_anomaly": 225.7579,
        "meta_ephemeris_type": 0,
        "meta_classification_type": "U",
        "meta_norad_cat_id": 33799,
        "meta_element_set_no": 999,
        "meta_rev_at_epoch": 88731,
        "meta_bstar": 0.0018238296,
        "meta_mean_motion_dot": 0.00013679,
        "meta_mean_motion_ddot": 0,
        "tle_line1": "1 33799U 93036AQ  25341.30649050  .00013679  00000+0  18238-2 0  9993",
        "tle_line2": "2 33799  74.0324  92.4845 0023967 165.0857 225.7579 14.79446612887312"
      },
      "geometry": {
        "type": "Point",
        "coordinates": [
          114.98219439445205,
          54.25281960385327
        ]
      }
    }
  ]
}